[{"OBJECT_NAME":"STARLINK-32727","OBJECT_ID":"2025-018Y","EPOCH":"2026-03-09T22:06:14.412960","MEAN_MOTION":15.30214094,"ECCENTRICITY":0.00018273,"INCLINATION":53.16,"RA_OF_ASC_NODE":305.6858,"ARG_OF_PERICENTER":165.6623,"MEAN_ANOMALY":194.443,"EPHEMERIS_TYPE":0,"CLASSIFICATION_TYPE":"U","NORAD_CAT_ID":62828,"ELEMENT_SET_NO":999,"REV_AT_EPOCH":6419,"BSTAR":0.00098132864,"MEAN_MOTION_DOT":0.00028831,"MEAN_MOTION_DDOT":0},{"OBJECT_NAME":"TRANSPORTER-1 OBJECT AA","OBJECT_ID":"2021-006AA","EPOCH":"2026-03-09T22:58:14.761920","MEAN_MOTION":15.29982294,"ECCENTRICITY":0.00086604,"INCLINATION":97.2381,"RA_OF_ASC_NODE":112.457,"ARG_OF_PERICENTER":185.709,"MEAN_ANOMALY":174.4054,"EPHEMERIS_TYPE":0,"CLASSIFICATION_TYPE":"U","NORAD_CAT_ID":47437,"ELEMENT_SET_NO":999,"REV_AT_EPOCH":28414,"BSTAR":0.0002197941,"MEAN_MOTION_DOT":6.312e-5,"MEAN_MOTION_DDOT":0}]
